NORAD_CAT_ID,OBJECT_NAME,OBJECT_TYPE,EPOCH,MEAN_MOTION,ECCENTRICITY,INCLINATION,RA_OF_ASC_NODE,ARG_OF_PERICENTER,MEAN_ANOMALY,BSTAR,MEAN_MOTION_DOT,MEAN_MOTION_DDOT,TLE_LINE0,TLE_LINE1,TLE_LINE2,SEMIMAJOR_AXIS,PERIOD,APOGEE,PERIGEE,DECAYED
52312.0,STARLINK-3752,PAYLOAD,2024-05-31 06:58:33,15.08839653,0.0001417,53.2179,115.3609,94.5837,265.5317,1.6285e-05,-2.9e-07,0.0,0 STARLINK-3752,1 52312U 22041BD  24152.29066326 -.00000029  00000-0  16285-4 0  9998,2 52312  53.2179 115.3609 0001417  94.5837 265.5317 15.08839653118137,6917.881,95.438,540.727,538.766,0.0
52312.0,STARLINK-3752,PAYLOAD,2024-06-01 03:38:33,15.08845754,0.0001361,53.218,111.4947,93.0583,267.0565,4.36e-05,4.06e-06,0.0,0 STARLINK-3752,1 52312U 22041BD  24153.15177800  .00000406  00000-0  43600-4 0  9993,2 52312  53.2180 111.4947 0001361  93.0583 267.0565 15.08845754118266,6917.863,95.437,540.669,538.786,0.0
52312.0,STARLINK-3752,PAYLOAD,2024-06-01 14:46:15,15.08844792,0.0001357,53.2181,109.4133,99.897,260.2176,3.1459e-05,2.13e-06,0.0,0 STARLINK-3752,1 52312U 22041BD  24153.61545761  .00000213  00000-0  31459-4 0  9994,2 52312  53.2181 109.4133 0001357  99.8970 260.2176 15.08844792118332,6917.866,95.437,540.669,538.792,0.0
52312.0,STARLINK-3752,PAYLOAD,2024-06-02 03:29:20,15.08842806,0.0001662,53.2189,107.0337,92.2103,267.908,-1.4932e-05,-5.26e-06,0.0,0 STARLINK-3752,1 52312U 22041BD  24154.14538103 -.00000526  00000-0 -14932-4 0  9991,2 52312  53.2189 107.0337 0001662  92.2103 267.9080 15.08842806118415,6917.872,95.437,540.887,538.587,0.0
52312.0,STARLINK-3752,PAYLOAD,2024-06-02 20:58:35,15.08837716,0.0001507,53.2189,103.7623,101.6582,258.4579,-4.1418e-05,-9.47e-06,0.0,0 STARLINK-3752,1 52312U 22041BD  24154.87402586 -.00000947  00000-0 -41418-4 0  9992,2 52312  53.2189 103.7623 0001507 101.6582 258.4579 15.08837716118524,6917.887,95.438,540.795,538.71,0.0
52312.0,STARLINK-3752,PAYLOAD,2024-06-03 06:30:54,15.08846492,0.0001271,53.2177,101.9819,85.8795,274.2343,-6.3796e-05,-1.303e-05,0.0,0 STARLINK-3752,1 52312U 22041BD  24155.27146207 -.00001303  00000-0 -63796-4 0  9992,2 52312  53.2177 101.9819 0001271  85.8795 274.2343 15.08846492118587,6917.861,95.437,540.605,538.846,0.0
52312.0,STARLINK-3752,PAYLOAD,2024-06-03 20:49:22,15.08844518,0.0001591,53.2174,99.3051,89.8918,270.2256,-8.2557e-05,-1.602e-05,0.0,0 STARLINK-3752,1 52312U 22041BD  24155.86762483 -.00001602  00000-0 -82557-4 0  9995,2 52312  53.2174  99.3051 0001591  89.8918 270.2256 15.08844518118674,6917.867,95.437,540.832,538.631,0.0
52312.0,STARLINK-3752,PAYLOAD,2024-06-04 12:43:13,15.08841934,0.0001106,53.2175,96.3297,87.7532,272.3587,8.9367e-05,1.135e-05,0.0,0 STARLINK-3752,1 52312U 22041BD  24156.53001936  .00001135  00000-0  89367-4 0  9994,2 52312  53.2175  96.3297 0001106  87.7532 272.3587 15.08841934118775,6917.874,95.437,540.505,538.974,0.0
52312.0,STARLINK-3752,PAYLOAD,2024-06-05 03:01:42,15.08835746,0.0001355,53.2191,93.6573,93.1019,267.0128,2.5223e-05,1.14e-06,0.0,0 STARLINK-3752,1 52312U 22041BD  24157.12618828  .00000114  00000-0  25223-4 0  9991,2 52312  53.2191  93.6573 0001355  93.1019 267.0128 15.08835746118863,6917.893,95.438,540.696,538.821,0.0
52312.0,STARLINK-3752,PAYLOAD,2024-06-05 12:34:01,15.08837377,0.0001283,53.2185,91.8738,95.6645,264.4493,-4.8236e-05,-1.055e-05,0.0,0 STARLINK-3752,1 52312U 22041BD  24157.52362912 -.00001055  00000-0 -48236-4 0  9991,2 52312  53.2185  91.8738 0001283  95.6645 264.4493 15.08837377118926,6917.888,95.438,540.641,538.866,0.0
52312.0,STARLINK-3752,PAYLOAD,2024-06-06 12:24:48,15.08843155,0.000126,53.2191,87.4102,87.4633,272.6504,-3.6774e-05,-8.73e-06,0.0,0 STARLINK-3752,1 52312U 22041BD  24158.51722808 -.00000873  00000-0 -36774-4 0  9996,2 52312  53.2191  87.4102 0001260  87.4633 272.6504 15.08843155119072,6917.871,95.437,540.607,538.864,0.0
52312.0,STARLINK-3752,PAYLOAD,2024-06-08 00:58:40,15.08866926,0.0001349,53.2187,80.5713,120.6418,239.4707,-0.00029658,-5.008e-05,0.0,0 STARLINK-3752,1 52312U 22041BD  24160.04074779 -.00005008  00000-0 -29658-3 0  9991,2 52312  53.2187  80.5713 0001349 120.6418 239.4707 15.08866926119301,6917.798,95.436,540.596,538.73,0.0
52312.0,STARLINK-3752,PAYLOAD,2024-06-08 12:06:22,15.08841059,0.0001399,53.2184,78.4894,87.9622,272.153,4.5381e-05,4.34e-06,0.0,0 STARLINK-3752,1 52312U 22041BD  24160.50443033  .00000434  00000-0  45381-4 0  9993,2 52312  53.2184  78.4894 0001399  87.9622 272.1530 15.08841059119376,6917.877,95.437,540.71,538.774,0.0
52312.0,STARLINK-3752,PAYLOAD,2024-06-08 18:27:55,15.08839253,0.0001543,53.2192,77.2998,99.8442,260.2725,1.3222e-05,-7.8e-07,0.0,0 STARLINK-3752,1 52312U 22041BD  24160.76939281 -.00000078  00000-0  13222-4 0  9990,2 52312  53.2192  77.2998 0001543  99.8442 260.2725 15.08839253119412,6917.883,95.438,540.815,538.68,0.0
52312.0,STARLINK-3752,PAYLOAD,2024-06-09 00:49:27,15.08842216,0.0001245,53.2183,76.1115,111.5611,248.5514,4.894e-06,-2.1e-06,0.0,0 STARLINK-3752,1 52312U 22041BD  24161.03434964 -.00000210  00000-0  48940-5 0  9993,2 52312  53.2183  76.1115 0001245 111.5611 248.5514 15.08842216119452,6917.874,95.437,540.6,538.877,0.0
52312.0,STARLINK-3752,PAYLOAD,2024-06-09 21:29:29,15.08801179,0.000129,53.2183,72.2463,109.9889,250.1242,0.00062969,9.737e-05,0.0,0 STARLINK-3752,1 52312U 22041BD  24161.89547813  .00009737  00000-0  62969-3 0  9992,2 52312  53.2183  72.2463 0001290 109.9889 250.1242 15.08801179119587,6917.999,95.44,540.756,538.972,0.0
52312.0,STARLINK-3752,PAYLOAD,2024-06-09 23:04:52,15.0880536,0.0001304,53.2187,71.9493,106.69,253.4235,0.00061202,9.457e-05,0.0,0 STARLINK-3752,1 52312U 22041BD  24161.96171732  .00009457  00000-0  61202-3 0  9991,2 52312  53.2187  71.9493 0001304 106.6900 253.4235 15.08805360119599,6917.986,95.44,540.753,538.949,0.0
52312.0,STARLINK-3752,PAYLOAD,2024-06-10 00:40:14,15.08849578,0.0001525,53.2195,71.6528,89.1677,270.949,5.7785e-05,6.32e-06,0.0,0 STARLINK-3752,1 52312U 22041BD  24162.02794382  .00000632  00000-0  57785-4 0  9999,2 52312  53.2195  71.6528 0001525  89.1677 270.9490 15.08849578119603,6917.851,95.437,540.771,538.661,0.0
52312.0,STARLINK-3752,PAYLOAD,2024-06-10 21:20:16,15.08834298,0.0001414,53.2181,67.7857,98.1184,261.9968,3.6062e-06,-2.31e-06,0.0,0 STARLINK-3752,1 52312U 22041BD  24162.88907556 -.00000231  00000-0  36062-5 0  9994,2 52312  53.2181  67.7857 0001414  98.1184 261.9968 15.08834298119736,6917.898,95.438,540.741,538.785,0.0
52312.0,STARLINK-3752,PAYLOAD,2024-06-10 22:55:39,15.08835441,0.0001443,53.2177,67.487,99.6909,260.4246,1.7971e-06,-2.59e-06,0.0,0 STARLINK-3752,1 52312U 22041BD  24162.95531524 -.00000259  00000-0  17971-5 0  9998,2 52312  53.2177  67.4870 0001443  99.6909 260.4246 15.08835441119741,6917.894,95.438,540.758,538.761,0.0
52312.0,STARLINK-3752,PAYLOAD,2024-06-11 10:03:21,15.08832899,0.0001366,53.2185,65.4091,94.7018,265.4131,-3.6996e-05,-8.77e-06,0.0,0 STARLINK-3752,1 52312U 22041BD  24163.41899947 -.00000877  00000-0 -36996-4 0  9990,2 52312  53.2185  65.4091 0001366  94.7018 265.4131 15.08832899119814,6917.902,95.438,540.712,538.822,0.0
52312.0,STARLINK-3752,PAYLOAD,2024-06-12 00:21:49,15.08841635,0.0001505,53.2193,62.7345,98.7422,261.3741,-1.095e-05,-4.62e-06,0.0,0 STARLINK-3752,1 52312U 22041BD  24164.01515408 -.00000462  00000-0 -10950-4 0  9996,2 52312  53.2193  62.7345 0001505  98.7422 261.3741 15.08841635119903,6917.875,95.437,540.782,538.699,0.0
52312.0,STARLINK-3752,PAYLOAD,2024-06-12 21:01:50,15.08830506,0.0001723,53.2193,58.8711,104.7558,255.3625,-4.5236e-06,-3.6e-06,0.0,0 STARLINK-3752,1 52312U 22041BD  24164.87628472 -.00000360  00000-0 -45236-5 0  9999,2 52312  53.2193  58.8711 0001723 104.7558 255.3625 15.08830506120031,6917.909,95.438,540.966,538.582,0.0
52312.0,STARLINK-3752,PAYLOAD,2024-06-12 22:37:14,15.08831379,0.0001778,53.2195,58.5754,113.5638,246.5541,-5.2134e-06,-3.71e-06,0.0,0 STARLINK-3752,1 52312U 22041BD  24164.94252452 -.00000371  00000-0 -52134-5 0  9995,2 52312  53.2195  58.5754 0001778 113.5638 246.5541 15.08831379120043,6917.907,95.438,541.002,538.542,0.0
52312.0,STARLINK-3752,PAYLOAD,2024-06-13 09:44:55,15.08835572,0.0001578,53.2189,56.4879,85.1303,274.9869,6.9967e-05,8.26e-06,0.0,0 STARLINK-3752,1 52312U 22041BD  24165.40620154  .00000826  00000-0  69967-4 0  9999,2 52312  53.2189  56.4879 0001578  85.1303 274.9869 15.08835572120117,6917.894,95.438,540.851,538.667,0.0
52312.0,STARLINK-3752,PAYLOAD,2024-06-13 22:28:00,15.08843038,0.0001545,53.2188,54.11,93.0335,267.0834,3.5145e-05,2.71e-06,0.0,0 STARLINK-3752,1 52312U 22041BD  24165.93611907  .00000271  00000-0  35145-4 0  9998,2 52312  53.2188  54.1100 0001545  93.0335 267.0834 15.08843038120194,6917.871,95.437,540.805,538.667,0.0
52312.0,STARLINK-3752,PAYLOAD,2024-06-14 09:35:42,15.08842644,0.0001503,53.2183,52.0259,89.1219,270.9945,3.0024e-05,1.9e-06,0.0,0 STARLINK-3752,1 52312U 22041BD  24166.39979822  .00000190  00000-0  30024-4 0  9993,2 52312  53.2183  52.0259 0001503  89.1219 270.9945 15.08842644120268,6917.872,95.437,540.777,538.698,0.0
52312.0,STARLINK-3752,PAYLOAD,2024-06-14 22:18:47,15.0884161,0.0001633,53.2186,49.6463,88.5262,271.5917,3.5206e-05,2.72e-06,0.0,0 STARLINK-3752,1 52312U 22041BD  24166.92972009  .00000272  00000-0  35206-4 0  9990,2 52312  53.2186  49.6463 0001633  88.5262 271.5917 15.08841610120342,6917.875,95.437,540.87,538.611,0.0
52312.0,STARLINK-3752,PAYLOAD,2024-06-15 09:26:29,15.08840326,0.0001581,53.2183,47.563,87.4967,272.6206,1.0204e-05,-1.26e-06,0.0,0 STARLINK-3752,1 52312U 22041BD  24167.39340079 -.00000126  00000-0  10204-4 0  9998,2 52312  53.2183  47.5630 0001581  87.4967 272.6206 15.08840326120418,6917.879,95.438,540.838,538.651,0.0
52312.0,STARLINK-3752,PAYLOAD,2024-06-15 22:09:36,15.08825961,0.0001497,53.219,45.1856,93.5801,266.5362,-0.00012592,-2.291e-05,0.0,0 STARLINK-3752,1 52312U 22041BD  24167.92333669 -.00002291  00000-0 -12592-3 0  9991,2 52312  53.2190  45.1856 0001497  93.5801 266.5362 15.08825961120492,6917.923,95.438,540.824,538.753,0.0
